{"type": "FeatureCollection", "features": [ {"type": "Feature", "properties": {"norad_id": 42741, "name": "EUTELSAT 172B", "group": "eutelsat", "lat": -0.025268220959338294, "lon": 40.624561555550855, "alt_km": 35786.601953383724, "timestamp": "2025-12-12T09:49:08.399408+00:00", "meta": {"OBJECT_NAME": "EUTELSAT 172B", "OBJECT_ID": "2017-029B", "EPOCH": "2025-12-12T02:18:51.215904", "MEAN_MOTION": 1.00269868, "ECCENTRICITY": 5.7e-06, "INCLINATION": 0.0441, "RA_OF_ASC_NODE": 151.278, "ARG_OF_PERICENTER": 161.8007, "MEAN_ANOMALY": 334.6731, "EPHEMERIS_TYPE": 0, "CLASSIFICATION_TYPE": "U", "NORAD_CAT_ID": 42741, "ELEMENT_SET_NO": 999, "REV_AT_EPOCH": 3185, "BSTAR": 0, "MEAN_MOTION_DOT": 3e-08, "MEAN_MOTION_DDOT": 0}, "tle": {"line1": "1 42741U 17029B   25346.09642611  .00000003  00000+0  00000+0 0  9997", "line2": "2 42741   0.0441 151.2780 0000057 161.8007 334.6731  1.00269868 31852"}}, "geometry": {"type": "Point", "coordinates": [40.624561555550855, -0.025268220959338294]}}, {"type": "Feature", "properties": {"norad_id": 44334, "name": "EUTELSAT 7C", "group": "eutelsat", "lat": 0.03954884388017847, "lon": -124.38656408014191, "alt_km": 35772.50046414828, "timestamp": "2025-12-12T09:49:08.399420+00:00", "meta": {"OBJECT_NAME": "EUTELSAT 7C", "OBJECT_ID": "2019-034B", "EPOCH": "2025-12-12T03:14:30.886080", "MEAN_MOTION": 1.00271596, "ECCENTRICITY": 0.0003251, "INCLINATION": 0.072, "RA_OF_ASC_NODE": 178.1084, "ARG_OF_PERICENTER": 65.7254, "MEAN_ANOMALY": 252.8644, "EPHEMERIS_TYPE": 0, "CLASSIFICATION_TYPE": "U", "NORAD_CAT_ID": 44334, "ELEMENT_SET_NO": 999, "REV_AT_EPOCH": 496, "BSTAR": 0, "MEAN_MOTION_DOT": 5.8e-07, "MEAN_MOTION_DDOT": 0}, "tle": {"line1": "1 44334U 19034B   25346.13507970  .00000058  00000+0  00000+0 0  9998", "line2": "2 44334   0.0720 178.1084 0003251  65.7254 252.8644  1.00271596  4969"}}, "geometry": {"type": "Point", "coordinates": [-124.38656408014191, 0.03954884388017847]}}, {"type": "Feature", "properties": {"norad_id": 44624, "name": "EUTELSAT 5 WEST B", "group": "eutelsat", "lat": -0.06833471051995121, "lon": -136.3899291573076, "alt_km": 35774.88695041168, "timestamp": "2025-12-12T09:49:08.399432+00:00", "meta": {"OBJECT_NAME": "EUTELSAT 5 WEST B", "OBJECT_ID": "2019-067A", "EPOCH": "2025-12-12T03:11:01.220064", "MEAN_MOTION": 1.00271785, "ECCENTRICITY": 0.0003369, "INCLINATION": 0.0623, "RA_OF_ASC_NODE": 347.8721, "ARG_OF_PERICENTER": 274.027, "MEAN_ANOMALY": 221.9383, "EPHEMERIS_TYPE": 0, "CLASSIFICATION_TYPE": "U", "NORAD_CAT_ID": 44624, "ELEMENT_SET_NO": 999, "REV_AT_EPOCH": 2256, "BSTAR": 0, "MEAN_MOTION_DOT": -3.3e-07, "MEAN_MOTION_DDOT": 0}, "tle": {"line1": "1 44624U 19067A   25346.13265301 -.00000033  00000+0  00000+0 0  9999", "line2": "2 44624   0.0623 347.8721 0003369 274.0270 221.9383  1.00271785 22562"}}, "geometry": {"type": "Point", "coordinates": [-136.3899291573076, -0.06833471051995121]}}, {"type": "Feature", "properties": {"norad_id": 45027, "name": "EUTELSAT KONNECT", "group": "eutelsat", "lat": 0.024835097415709807, "lon": -124.19128530878004, "alt_km": 35782.318546665694, "timestamp": "2025-12-12T09:49:08.399444+00:00", "meta": {"OBJECT_NAME": "EUTELSAT KONNECT", "OBJECT_ID": "2020-005B", "EPOCH": "2025-12-12T01:31:48.222048", "MEAN_MOTION": 1.00270011, "ECCENTRICITY": 0.0001596, "INCLINATION": 0.0715, "RA_OF_ASC_NODE": 96.0285, "ARG_OF_PERICENTER": 191.0796, "MEAN_ANOMALY": 184.048, "EPHEMERIS_TYPE": 0, "CLASSIFICATION_TYPE": "U", "NORAD_CAT_ID": 45027, "ELEMENT_SET_NO": 999, "REV_AT_EPOCH": 2246, "BSTAR": 0, "MEAN_MOTION_DOT": 5.8e-07, "MEAN_MOTION_DDOT": 0}, "tle": {"line1": "1 45027U 20005B   25346.06375257  .00000058  00000+0  00000+0 0  9991", "line2": "2 45027   0.0715  96.0285 0001596 191.0796 184.0480  1.00270011 22468"}}, "geometry": {"type": "Point", "coordinates": [-124.19128530878004, 0.024835097415709807]}}, {"type": "Feature", "properties": {"norad_id": 49056, "name": "EUTELSAT QUANTUM", "group": "eutelsat", "lat": -0.03027813308040285, "lon": -83.6629339966107, "alt_km": 35770.46857583903, "timestamp": "2025-12-12T09:49:08.399456+00:00", "meta": {"OBJECT_NAME": "EUTELSAT QUANTUM", "OBJECT_ID": "2021-069B", "EPOCH": "2025-12-12T03:26:07.275264", "MEAN_MOTION": 1.00272405, "ECCENTRICITY": 0.0003647, "INCLINATION": 0.0207, "RA_OF_ASC_NODE": 35.1128, "ARG_OF_PERICENTER": 238.9314, "MEAN_ANOMALY": 266.2792, "EPHEMERIS_TYPE": 0, "CLASSIFICATION_TYPE": "U", "NORAD_CAT_ID": 49056, "ELEMENT_SET_NO": 999, "REV_AT_EPOCH": 1605, "BSTAR": 0, "MEAN_MOTION_DOT": 1.35e-06, "MEAN_MOTION_DDOT": 0}, "tle": {"line1": "1 49056U 21069B   25346.14313976  .00000135  00000+0  00000+0 0  9993", "line2": "2 49056   0.0207  35.1128 0003647 238.9314 266.2792  1.00272405 16052"}}, "geometry": {"type": "Point", "coordinates": [-83.6629339966107, -0.03027813308040285]}}, {"type": "Feature", "properties": {"norad_id": 53765, "name": "EUTELSAT KONNECT VHTS", "group": "eutelsat", "lat": 0.02698034223892699, "lon": -128.64916832868994, "alt_km": 35775.67375150118, "timestamp": "2025-12-12T09:49:08.399469+00:00", "meta": {"OBJECT_NAME": "EUTELSAT KONNECT VHTS", "OBJECT_ID": "2022-110A", "EPOCH": "2025-12-12T03:13:16.004064", "MEAN_MOTION": 1.00271767, "ECCENTRICITY": 0.0002492, "INCLINATION": 0.0639, "RA_OF_ASC_NODE": 101.3299, "ARG_OF_PERICENTER": 139.4387, "MEAN_ANOMALY": 251.3532, "EPHEMERIS_TYPE": 0, "CLASSIFICATION_TYPE": "U", "NORAD_CAT_ID": 53765, "ELEMENT_SET_NO": 999, "REV_AT_EPOCH": 495, "BSTAR": 0, "MEAN_MOTION_DOT": 2.7e-07, "MEAN_MOTION_DDOT": 0}, "tle": {"line1": "1 53765U 22110A   25346.13421301  .00000027  00000+0  00000+0 0  9994", "line2": "2 53765   0.0639 101.3299 0002492 139.4387 251.3532  1.00271767  4953"}}, "geometry": {"type": "Point", "coordinates": [-128.64916832868994, 0.02698034223892699]}}, {"type": "Feature", "properties": {"norad_id": 54048, "name": "EUTELSAT HOTBIRD 13F", "group": "eutelsat", "lat": -0.05333403804225823, "lon": -118.3862999445001, "alt_km": 35790.898990410526, "timestamp": "2025-12-12T09:49:08.399480+00:00", "meta": {"OBJECT_NAME": "EUTELSAT HOTBIRD 13F", "OBJECT_ID": "2022-134A", "EPOCH": "2025-12-11T23:36:58.233312", "MEAN_MOTION": 1.00269374, "ECCENTRICITY": 0.0002241, "INCLINATION": 0.048, "RA_OF_ASC_NODE": 293.1086, "ARG_OF_PERICENTER": 64.7327, "MEAN_ANOMALY": 90.3432, "EPHEMERIS_TYPE": 0, "CLASSIFICATION_TYPE": "U", "NORAD_CAT_ID": 54048, "ELEMENT_SET_NO": 999, "REV_AT_EPOCH": 1150, "BSTAR": 0, "MEAN_MOTION_DOT": 9.6e-07, "MEAN_MOTION_DDOT": 0}, "tle": {"line1": "1 54048U 22134A   25345.98400733  .00000096  00000+0  00000+0 0  9999", "line2": "2 54048   0.0480 293.1086 0002241  64.7327  90.3432  1.00269374 11502"}}, "geometry": {"type": "Point", "coordinates": [-118.3862999445001, -0.05333403804225823]}}, {"type": "Feature", "properties": {"norad_id": 54225, "name": "EUTELSAT HOTBIRD 13G", "group": "eutelsat", "lat": -0.01277775533726975, "lon": -118.3585966647049, "alt_km": 35782.38351576476, "timestamp": "2025-12-12T09:49:08.399492+00:00", "meta": {"OBJECT_NAME": "EUTELSAT HOTBIRD 13G", "OBJECT_ID": "2022-146A", "EPOCH": "2025-12-12T03:16:08.230368", "MEAN_MOTION": 1.00271133, "ECCENTRICITY": 0.0001821, "INCLINATION": 0.0481, "RA_OF_ASC_NODE": 233.9865, "ARG_OF_PERICENTER": 307.8152, "MEAN_ANOMALY": 321.3083, "EPHEMERIS_TYPE": 0, "CLASSIFICATION_TYPE": "U", "NORAD_CAT_ID": 54225, "ELEMENT_SET_NO": 999, "REV_AT_EPOCH": 559, "BSTAR": 0, "MEAN_MOTION_DOT": 9.6e-07, "MEAN_MOTION_DDOT": 0}, "tle": {"line1": "1 54225U 22146A   25346.13620637  .00000096  00000+0  00000+0 0  9994", "line2": "2 54225   0.0481 233.9865 0001821 307.8152 321.3083  1.00271133  5594"}}, "geometry": {"type": "Point", "coordinates": [-118.3585966647049, -0.01277775533726975]}}, {"type": "Feature", "properties": {"norad_id": 54259, "name": "EUTELSAT 10B", "group": "eutelsat", "lat": 0.016787079423574984, "lon": -121.38882295047874, "alt_km": 35786.4939738218, "timestamp": "2025-12-12T09:49:08.399520+00:00", "meta": {"OBJECT_NAME": "EUTELSAT 10B", "OBJECT_ID": "2022-157A", "EPOCH": "2025-12-12T03:15:15.814080", "MEAN_MOTION": 1.00269595, "ECCENTRICITY": 6.67e-05, "INCLINATION": 0.0602, "RA_OF_ASC_NODE": 99.4652, "ARG_OF_PERICENTER": 52.9075, "MEAN_ANOMALY": 347.4998, "EPHEMERIS_TYPE": 0, "CLASSIFICATION_TYPE": "U", "NORAD_CAT_ID": 54259, "ELEMENT_SET_NO": 999, "REV_AT_EPOCH": 1115, "BSTAR": 0, "MEAN_MOTION_DOT": 7.7e-07, "MEAN_MOTION_DDOT": 0}, "tle": {"line1": "1 54259U 22157A   25346.13559970  .00000077  00000+0  00000+0 0  9993", "line2": "2 54259   0.0602  99.4652 0000667  52.9075 347.4998  1.00269595 11156"}}, "geometry": {"type": "Point", "coordinates": [-121.38882295047874, 0.016787079423574984]}}, {"type": "Feature", "properties": {"norad_id": 59346, "name": "EUTELSAT 36D", "group": "eutelsat", "lat": -0.03620086795506103, "lon": -95.530945723626, "alt_km": 35786.6300726992, "timestamp": "2025-12-12T09:49:08.399534+00:00", "meta": {"OBJECT_NAME": "EUTELSAT 36D", "OBJECT_ID": "2024-059A", "EPOCH": "2025-12-12T01:40:02.434368", "MEAN_MOTION": 1.00269434, "ECCENTRICITY": 4.34e-05, "INCLINATION": 0.0187, "RA_OF_ASC_NODE": 349.451, "ARG_OF_PERICENTER": 2.6949, "MEAN_ANOMALY": 149.7269, "EPHEMERIS_TYPE": 0, "CLASSIFICATION_TYPE": "U", "NORAD_CAT_ID": 59346, "ELEMENT_SET_NO": 999, "REV_AT_EPOCH": 627, "BSTAR": 0, "MEAN_MOTION_DOT": 0, "MEAN_MOTION_DDOT": 0}, "tle": {"line1": "1 59346U 24059A   25346.06947262  .00000000  00000+0  00000+0 0  9991", "line2": "2 59346   0.0187 349.4510 0000434   2.6949 149.7269  1.00269434  6274"}}, "geometry": {"type": "Point", "coordinates": [-95.530945723626, -0.03620086795506103]}}]}